{"type":"FeatureCollection","features":[{"type":"Feature","properties":{},"geometry":{"coordinates":[[[73.87984878858873,18.460022663867747],[73.8798344723198,18.460001460885266],[73.8799998136636,18.459453653890506],[73.88002109138782,18.45941699264911],[73.8800629577853,18.459406772332088],[73.88066149128974,18.45948971534095],[73.88071171369282,18.45953524627052],[73.88046181247637,18.460155108956712],[73.87988921840031,18.460052481221894],[73.87984878858873,18.460022663867747]]],"type":"Polygon"}}],"bbox":null}